STARLINK-30499          
1 57918U 23147F   26034.37347517 -.00002931  00000+0 -97047-4 0  9996
2 57918  43.0035  14.0163 0000921 255.3263 104.7487 15.27574983133087
STARLINK-30496          
1 57919U 23147G   26035.03770303  .00000095  00000+0  22125-4 0  9996
2 57919  43.0024 149.1007 0001295 284.6931  75.3768 15.02535188131557
STARLINK-30485          
1 57920U 23147H   26035.03436973 -.00000030  00000+0  12835-4 0  9997
2 57920  43.0028 149.0756 0001413 270.2574  89.8106 15.02538645131556
STARLINK-30492          
1 57921U 23147J   26034.63218021  .00000904  00000+0  82003-4 0  9998
2 57921  42.9976 151.2085 0000571 191.5544 168.5285 15.02526639131466
STARLINK-30440          
1 57923U 23147L   26035.29362458 -.00000092  00000+0  82374-5 0  9998
2 57923  43.0013 147.5779 0001334 279.1506  80.9186 15.02535816131597
STARLINK-30487          
1 57924U 23147M   26034.74181816 -.00000121  00000+0  60831-5 0  9992
2 57924  43.0029 150.3029 0001240 263.4902  96.5800 15.02537699131516
STARLINK-30452          
1 57925U 23147N   26035.29029208 -.00000012  00000+0  14174-4 0  9997
2 57925  43.0030 147.5474 0001344 270.7138  89.3551 15.02538122131568
STARLINK-30468          
1 57926U 23147P   26034.62218839 -.00001088  00000+0 -65476-4 0  9990
2 57926  43.0012 151.1456 0001094 265.5811  94.4907 15.02535000131465
STARLINK-30448          
1 57928U 23147R   26035.28030669 -.00000853  00000+0 -48089-4 0  9998
2 57928  43.0004 147.4766 0000680 232.2050 127.8731 15.02538358131562
STARLINK-30476          
1 57930U 23147T   26035.19027849  .00064681  00000+0  20500-2 0  9990
2 57930  42.9960 102.9152 0015557 357.0810   2.9950 15.31749562132074
STARLINK-30488          
1 57931U 23147U   26034.67867462 -.00000626  00000+0 -31254-4 0  9997
2 57931  43.0021 150.7053 0001425 273.0811  86.9868 15.02535342131507
STARLINK-30471          
1 57932U 23147V   26034.66202521 -.00001701  00000+0 -11091-3 0  9997
2 57932  43.0027 150.5771 0001514 266.7410  93.3259 15.02531572131475
STARLINK-30461          
1 57933U 23147W   26034.40610592 -.00000357  00000+0 -11337-4 0  9991
2 57933  43.0017 152.1012 0001024 239.3397 120.7344 15.02534259131438
STARLINK-30712          
1 57935U 23148A   26035.11772971  .00006538  00000+0  23297-3 0  9995
2 57935  53.1590 180.1343 0001467  93.3052 266.8117 15.30157189133282
STARLINK-30716          
1 57936U 23148B   26034.42878829  .00000233  00000+0  19978-4 0  9996
2 57936  53.1596 183.5699 0001175  82.0443 278.0691 15.30209600133171
STARLINK-30400          
1 57937U 23148C   26035.12087689  .00000017  00000+0  12715-4 0  9993
2 57937  53.1621 180.1160 0001285  94.4851 265.6297 15.30191428133283
