[{"OBJECT_NAME":"STARLINK-30499","OBJECT_ID":"2023-147F","EPOCH":"2026-02-03T08:57:48.254688","MEAN_MOTION":15.27574983,"ECCENTRICITY":9.215e-5,"INCLINATION":43.0035,"RA_OF_ASC_NODE":14.0163,"ARG_OF_PERICENTER":255.3263,"MEAN_ANOMALY":104.7487,"EPHEMERIS_TYPE":0,"CLASSIFICATION_TYPE":"U","NORAD_CAT_ID":57918,"ELEMENT_SET_NO":999,"REV_AT_EPOCH":13308,"BSTAR":-9.7046858e-5,"MEAN_MOTION_DOT":-2.931e-5,"MEAN_MOTION_DDOT":0},{"OBJECT_NAME":"STARLINK-30496","OBJECT_ID":"2023-147G","EPOCH":"2026-02-04T00:54:17.541792","MEAN_MOTION":15.02535188,"ECCENTRICITY":0.00012958,"INCLINATION":43.0024,"RA_OF_ASC_NODE":149.1007,"ARG_OF_PERICENTER":284.6931,"MEAN_ANOMALY":75.3768,"EPHEMERIS_TYPE":0,"CLASSIFICATION_TYPE":"U","NORAD_CAT_ID":57919,"ELEMENT_SET_NO":999,"REV_AT_EPOCH":13155,"BSTAR":2.2125482e-5,"MEAN_MOTION_DOT":9.5e-7,"MEAN_MOTION_DDOT":0},{"OBJECT_NAME":"STARLINK-30485","OBJECT_ID":"2023-147H","EPOCH":"2026-02-04T00:49:29.544672","MEAN_MOTION":15.02538645,"ECCENTRICITY":0.00014135,"INCLINATION":43.0028,"RA_OF_ASC_NODE":149.0756,"ARG_OF_PERICENTER":270.2574,"MEAN_ANOMALY":89.8106,"EPHEMERIS_TYPE":0,"CLASSIFICATION_TYPE":"U","NORAD_CAT_ID":57920,"ELEMENT_SET_NO":999,"REV_AT_EPOCH":13155,"BSTAR":1.2835262e-5,"MEAN_MOTION_DOT":-3.0e-7,"MEAN_MOTION_DDOT":0},{"OBJECT_NAME":"STARLINK-30492","OBJECT_ID":"2023-147J","EPOCH":"2026-02-03T15:10:20.370144","MEAN_MOTION":15.02526639,"ECCENTRICITY":5.717e-5,"INCLINATION":42.9976,"RA_OF_ASC_NODE":151.2085,"ARG_OF_PERICENTER":191.5544,"MEAN_ANOMALY":168.5285,"EPHEMERIS_TYPE":0,"CLASSIFICATION_TYPE":"U","NORAD_CAT_ID":57921,"ELEMENT_SET_NO":999,"REV_AT_EPOCH":13146,"BSTAR":8.2002613e-5,"MEAN_MOTION_DOT":9.04e-6,"MEAN_MOTION_DDOT":0},{"OBJECT_NAME":"STARLINK-30440","OBJECT_ID":"2023-147L","EPOCH":"2026-02-04T07:02:49.163712","MEAN_MOTION":15.02535816,"ECCENTRICITY":0.0001334,"INCLINATION":43.0013,"RA_OF_ASC_NODE":147.5779,"ARG_OF_PERICENTER":279.1506,"MEAN_ANOMALY":80.9186,"EPHEMERIS_TYPE":0,"CLASSIFICATION_TYPE":"U","NORAD_CAT_ID":57923,"ELEMENT_SET_NO":999,"REV_AT_EPOCH":13159,"BSTAR":8.237441e-6,"MEAN_MOTION_DOT":-9.2e-7,"MEAN_MOTION_DDOT":0},{"OBJECT_NAME":"STARLINK-30487","OBJECT_ID":"2023-147M","EPOCH":"2026-02-03T17:48:13.089024","MEAN_MOTION":15.02537699,"ECCENTRICITY":0.000124,"INCLINATION":43.0029,"RA_OF_ASC_NODE":150.3029,"ARG_OF_PERICENTER":263.4902,"MEAN_ANOMALY":96.58,"EPHEMERIS_TYPE":0,"CLASSIFICATION_TYPE":"U","NORAD_CAT_ID":57924,"ELEMENT_SET_NO":999,"REV_AT_EPOCH":13151,"BSTAR":6.0831e-6,"MEAN_MOTION_DOT":-1.21e-6,"MEAN_MOTION_DDOT":0},{"OBJECT_NAME":"STARLINK-30452","OBJECT_ID":"2023-147N","EPOCH":"2026-02-04T06:58:01.235712","MEAN_MOTION":15.02538122,"ECCENTRICITY":0.00013446,"INCLINATION":43.003,"RA_OF_ASC_NODE":147.5474,"ARG_OF_PERICENTER":270.7138,"MEAN_ANOMALY":89.3551,"EPHEMERIS_TYPE":0,"CLASSIFICATION_TYPE":"U","NORAD_CAT_ID":57925,"ELEMENT_SET_NO":999,"REV_AT_EPOCH":13156,"BSTAR":1.4173733e-5,"MEAN_MOTION_DOT":-1.2e-7,"MEAN_MOTION_DDOT":0},{"OBJECT_NAME":"STARLINK-30468","OBJECT_ID":"2023-147P","EPOCH":"2026-02-03T14:55:57.076896","MEAN_MOTION":15.02535,"ECCENTRICITY":0.00010941,"INCLINATION":43.0012,"RA_OF_ASC_NODE":151.1456,"ARG_OF_PERICENTER":265.5811,"MEAN_ANOMALY":94.4907,"EPHEMERIS_TYPE":0,"CLASSIFICATION_TYPE":"U","NORAD_CAT_ID":57926,"ELEMENT_SET_NO":999,"REV_AT_EPOCH":13146,"BSTAR":-6.5475577e-5,"MEAN_MOTION_DOT":-1.088e-5,"MEAN_MOTION_DDOT":0},{"OBJECT_NAME":"STARLINK-30448","OBJECT_ID":"2023-147R","EPOCH":"2026-02-04T06:43:38.498016","MEAN_MOTION":15.02538358,"ECCENTRICITY":6.809e-5,"INCLINATION":43.0004,"RA_OF_ASC_NODE":147.4766,"ARG_OF_PERICENTER":232.205,"MEAN_ANOMALY":127.8731,"EPHEMERIS_TYPE":0,"CLASSIFICATION_TYPE":"U","NORAD_CAT_ID":57928,"ELEMENT_SET_NO":999,"REV_AT_EPOCH":13156,"BSTAR":-4.8089332e-5,"MEAN_MOTION_DOT":-8.53e-6,"MEAN_MOTION_DDOT":0},{"OBJECT_NAME":"STARLINK-30476","OBJECT_ID":"2023-147T","EPOCH":"2026-02-04T04:34:00.061536","MEAN_MOTION":15.31749562,"ECCENTRICITY":0.00155574,"INCLINATION":42.996,"RA_OF_ASC_NODE":102.9152,"ARG_OF_PERICENTER":357.081,"MEAN_ANOMALY":2.995,"EPHEMERIS_TYPE":0,"CLASSIFICATION_TYPE":"U","NORAD_CAT_ID":57930,"ELEMENT_SET_NO":999,"REV_AT_EPOCH":13207,"BSTAR":0.0020500108,"MEAN_MOTION_DOT":0.00064681,"MEAN_MOTION_DDOT":0},{"OBJECT_NAME":"STARLINK-30488","OBJECT_ID":"2023-147U","EPOCH":"2026-02-03T16:17:17.487168","MEAN_MOTION":15.02535342,"ECCENTRICITY":0.00014255,"INCLINATION":43.0021,"RA_OF_ASC_NODE":150.7053,"ARG_OF_PERICENTER":273.0811,"MEAN_ANOMALY":86.9868,"EPHEMERIS_TYPE":0,"CLASSIFICATION_TYPE":"U","NORAD_CAT_ID":57931,"ELEMENT_SET_NO":999,"REV_AT_EPOCH":13150,"BSTAR":-3.1253717e-5,"MEAN_MOTION_DOT":-6.26e-6,"MEAN_MOTION_DDOT":0},{"OBJECT_NAME":"STARLINK-30471","OBJECT_ID":"2023-147V","EPOCH":"2026-02-03T15:53:18.978144","MEAN_MOTION":15.02531572,"ECCENTRICITY":0.00015141,"INCLINATION":43.0027,"RA_OF_ASC_NODE":150.5771,"ARG_OF_PERICENTER":266.741,"MEAN_ANOMALY":93.3259,"EPHEMERIS_TYPE":0,"CLASSIFICATION_TYPE":"U","NORAD_CAT_ID":57932,"ELEMENT_SET_NO":999,"REV_AT_EPOCH":13147,"BSTAR":-0.00011090685,"MEAN_MOTION_DOT":-1.701e-5,"MEAN_MOTION_DDOT":0},{"OBJECT_NAME":"STARLINK-30461","OBJECT_ID":"2023-147W","EPOCH":"2026-02-03T09:44:47.551488","MEAN_MOTION":15.02534259,"ECCENTRICITY":0.00010249,"INCLINATION":43.0017,"RA_OF_ASC_NODE":152.1012,"ARG_OF_PERICENTER":239.3397,"MEAN_ANOMALY":120.7344,"EPHEMERIS_TYPE":0,"CLASSIFICATION_TYPE":"U","NORAD_CAT_ID":57933,"ELEMENT_SET_NO":999,"REV_AT_EPOCH":13143,"BSTAR":-1.1337208e-5,"MEAN_MOTION_DOT":-3.57e-6,"MEAN_MOTION_DDOT":0},{"OBJECT_NAME":"STARLINK-30712","OBJECT_ID":"2023-148A","EPOCH":"2026-02-04T02:49:31.846944","MEAN_MOTION":15.30157189,"ECCENTRICITY":0.00014673,"INCLINATION":53.159,"RA_OF_ASC_NODE":180.1343,"ARG_OF_PERICENTER":93.3052,"MEAN_ANOMALY":266.8117,"EPHEMERIS_TYPE":0,"CLASSIFICATION_TYPE":"U","NORAD_CAT_ID":57935,"ELEMENT_SET_NO":999,"REV_AT_EPOCH":13328,"BSTAR":0.00023296894,"MEAN_MOTION_DOT":6.538e-5,"MEAN_MOTION_DDOT":0},{"OBJECT_NAME":"STARLINK-30716","OBJECT_ID":"2023-148B","EPOCH":"2026-02-03T10:17:27.308256","MEAN_MOTION":15.302096,"ECCENTRICITY":0.00011754,"INCLINATION":53.1596,"RA_OF_ASC_NODE":183.5699,"ARG_OF_PERICENTER":82.0443,"MEAN_ANOMALY":278.0691,"EPHEMERIS_TYPE":0,"CLASSIFICATION_TYPE":"U","NORAD_CAT_ID":57936,"ELEMENT_SET_NO":999,"REV_AT_EPOCH":13317,"BSTAR":1.9978032e-5,"MEAN_MOTION_DOT":2.33e-6,"MEAN_MOTION_DDOT":0},{"OBJECT_NAME":"STARLINK-30400","OBJECT_ID":"2023-148C","EPOCH":"2026-02-04T02:54:03.763296","MEAN_MOTION":15.30191428,"ECCENTRICITY":0.00012857,"INCLINATION":53.1621,"RA_OF_ASC_NODE":180.116,"ARG_OF_PERICENTER":94.4851,"MEAN_ANOMALY":265.6297,"EPHEMERIS_TYPE":0,"CLASSIFICATION_TYPE":"U","NORAD_CAT_ID":57937,"ELEMENT_SET_NO":999,"REV_AT_EPOCH":13328,"BSTAR":1.2714902e-5,"MEAN_MOTION_DOT":1.7e-7,"MEAN_MOTION_DDOT":0}]
